NORAD_CAT_ID,OBJECT_NAME,OBJECT_TYPE,EPOCH,MEAN_MOTION,ECCENTRICITY,INCLINATION,RA_OF_ASC_NODE,ARG_OF_PERICENTER,MEAN_ANOMALY,BSTAR,MEAN_MOTION_DOT,MEAN_MOTION_DDOT,TLE_LINE0,TLE_LINE1,TLE_LINE2,SEMIMAJOR_AXIS,PERIOD,APOGEE,PERIGEE,DECAYED
52673.0,STARLINK-3976,PAYLOAD,2022-05-24 16:00:00,15.8000991,0.0001675999999999,53.2162,267.0726,45.1627,143.0676,-0.0046461,-0.00804202,0.0,0 STARLINK-3976,1 52673U 22053T   22144.66667824 -.00804202  00000-0 -46461-2 0  9994,2 52673  53.2162 267.0726 0001676  45.1627 143.0676 15.80009910  1303,6708.55,91.139,331.539,329.29,0.0
52673.0,STARLINK-3976,PAYLOAD,2022-05-24 22:00:00,15.7959576,0.0001537,53.2171,265.8236,39.5066,131.3592,-0.0052228,-0.00879058,0.0,0 STARLINK-3976,1 52673U 22053T   22144.91667824 -.00879058  00000-0 -52228-2 0  9991,2 52673  53.2171 265.8236 0001537  39.5066 131.3592 15.79595760  1303,6709.722,91.163,332.61800000000005,330.556,0.0
52673.0,STARLINK-3976,PAYLOAD,2022-05-25 04:00:00,15.79120333,0.0001715,53.2174,264.5735,31.3843,121.724,-0.0052925,-0.00872352,0.0,0 STARLINK-3976,1 52673U 22053T   22145.16667824 -.00872352  00000-0 -52925-2 0  9993,2 52673  53.2174 264.5735 0001715  31.3843 121.7240 15.79120333  1377,6711.069,91.19,334.085,331.783,0.0
52673.0,STARLINK-3976,PAYLOAD,2022-05-25 14:00:01,15.78337264,0.0001955,53.2175,262.4963,22.8383,339.7236,-0.0055265,-0.00878452,0.0,0 STARLINK-3976,1 52673U 22053T   22145.58334491 -.00878452  00000-0 -55265-2 0  9997,2 52673  53.2175 262.4963 0001955  22.8383 339.7236 15.78337264  1309,6713.288000000001,91.235,336.466,333.841,0.0
52673.0,STARLINK-3976,PAYLOAD,2022-05-25 20:00:01,15.77865012,0.00015,53.2171,261.2505,31.7691,311.8985,-0.0056322,-0.00876355,0.0,0 STARLINK-3976,1 52673U 22053T   22145.83334491 -.00876355  00000-0 -56322-2 0  9990,2 52673  53.2171 261.2505 0001500  31.7691 311.8985 15.77865012  1488,6714.628000000002,91.263,337.5,335.486,0.0
52673.0,STARLINK-3976,PAYLOAD,2022-05-25 22:00:00,15.77706951,0.0001629,53.2171,260.8345,31.6563,65.6201,-0.0056719,-0.00876312,0.0,0 STARLINK-3976,1 52673U 22053T   22145.91667824 -.00876312  00000-0 -56719-2 0  9991,2 52673  53.2171 260.8345 0001629  31.6563  65.6201 15.77706951  1306,6715.076,91.272,338.035,335.847,0.0
52673.0,STARLINK-3976,PAYLOAD,2022-05-26 14:00:01,15.76448386,0.0001983,53.2172,257.517,25.8483,258.5871,-0.0060037,-0.00876776,0.0,0 STARLINK-3976,1 52673U 22053T   22146.58334491 -.00876776  00000-0 -60037-2 0  9998,2 52673  53.2172 257.5170 0001983  25.8483 258.5871 15.76448386  1305,6718.65,91.345,341.847,339.182,0.0
52673.0,STARLINK-3976,PAYLOAD,2022-05-26 20:00:01,15.75976554,0.000145,53.2172,256.2743,41.2523,222.5873,-0.00612,-0.00875173,0.0,0 STARLINK-3976,1 52673U 22053T   22146.83334491 -.00875173  00000-0 -61200-2 0  9999,2 52673  53.2172 256.2743 0001450  41.2523 222.5873 15.75976554  1645,6719.991,91.372,342.83,340.881,0.0
52673.0,STARLINK-3976,PAYLOAD,2022-05-26 22:00:00,15.75819371,0.0001392,53.2173,255.8599,35.5294,341.3511,-0.0061693,-0.0087599,0.0,0 STARLINK-3976,1 52673U 22053T   22146.91667824 -.00875990  00000-0 -61693-2 0  9990,2 52673  53.2173 255.8599 0001392  35.5294 341.3511 15.75819371  1301,6720.438,91.381,343.23800000000006,341.367,0.0
52673.0,STARLINK-3976,PAYLOAD,2022-05-27 14:00:01,15.74559337,0.0001982,53.2175,252.5514,30.534,168.9688,-0.0065021,-0.00873865,0.0,0 STARLINK-3976,1 52673U 22053T   22147.58334491 -.00873865  00000-0 -65021-2 0  9993,2 52673  53.2175 252.5514 0001982  30.5340 168.9688 15.74559337  1766,6724.022,91.454,347.22,344.555,0.0
52673.0,STARLINK-3976,PAYLOAD,2022-05-27 22:00:01,15.7389631,0.0001608,53.2173,250.8985,37.5452,252.2071,-0.0060481,-0.00796952,0.0,0 STARLINK-3976,1 52673U 22053T   22147.91668981 -.00796952  00000-0 -60481-2 0  9990,2 52673  53.2173 250.8985 0001608  37.5452 252.2071 15.73896310  1300,6725.911,91.493,348.857,346.694,0.0
52673.0,STARLINK-3976,PAYLOAD,2022-05-28 04:00:00,15.73280887,0.0001886,53.2172,249.6591,32.7886,234.0514,-0.00086472,-0.0012068,0.0,0 STARLINK-3976,1 52673U 22053T   22148.16667824 -.00120680  00000-0 -86472-3 0  9991,2 52673  53.2172 249.6591 0001886  32.7886 234.0514 15.73280887  1850,6727.665,91.528,350.798,348.261,0.0
52673.0,STARLINK-3976,PAYLOAD,2022-05-28 12:00:00,15.73148489,0.000328,53.2151,248.0087,284.4695,71.5066,-0.00089043,-0.00123544,0.0,0 STARLINK-3976,1 52673U 22053T   22148.50001157 -.00123544  00000-0 -89043-3 0  9999,2 52673  53.2151 248.0087 0003280 284.4695  71.5066 15.73148489  1907,6728.042,91.536,352.11400000000015,347.7,0.0
52673.0,STARLINK-3976,PAYLOAD,2022-05-28 14:00:01,15.72922908,0.0003429,53.2156,247.5973,287.3534,180.9002,0.0023684,0.00341606,0.0,0 STARLINK-3976,1 52673U 22053T   22148.58334491  .00341606  00000-0  23684-2 0  9994,2 52673  53.2156 247.5973 0003429 287.3534 180.9002 15.72922908  1303,6728.685,91.549,352.858,348.24300000000005,0.0
52673.0,STARLINK-3976,PAYLOAD,2022-05-28 20:00:01,15.7329495,0.0003276999999999,53.2126,246.3561,293.732,151.2765,-0.00042339,-0.00059883,0.0,0 STARLINK-3976,1 52673U 22053T   22148.83335648 -.00059883  00000-0 -42339-3 0  9991,2 52673  53.2126 246.3561 0003277 293.7320 151.2765 15.73294950  1953,6727.624,91.528,351.694,347.285,0.0
52673.0,STARLINK-3976,PAYLOAD,2022-05-28 22:00:00,15.73323881,0.0003168999999999,53.2131,245.9432,292.9308,264.2595,-0.0010251,-0.00142878,0.0,0 STARLINK-3976,1 52673U 22053T   22148.91667824 -.00142878  00000-0 -10251-2 0  9998,2 52673  53.2131 245.9432 0003169 292.9308 264.2595 15.73323881  1309,6727.542,91.526,351.539,347.275,0.0
52673.0,STARLINK-3976,PAYLOAD,2022-05-29 04:00:00,15.73214322,0.0002822,53.2141,244.7045,294.4648,239.4829,-0.00068921,-0.00096331,0.0,0 STARLINK-3976,1 52673U 22053T   22149.16667824 -.00096331  00000-0 -68921-3 0  9996,2 52673  53.2141 244.7045 0002822 294.4648 239.4829 15.73214322  2007,6727.854,91.532,351.61800000000005,347.821,0.0
52673.0,STARLINK-3976,PAYLOAD,2022-05-29 14:00:01,15.73114908,0.0002579,53.215,242.6449,306.9265,68.131,-6.435100000000001e-05,-9.611e-05,0.0,0 STARLINK-3976,1 52673U 22053T   22149.58334491 -.00009611  00000-0 -64351-4 0  9992,2 52673  53.2150 242.6449 0002579 306.9265  68.1310 15.73114908  1308,6728.138000000001,91.538,351.73800000000006,348.26800000000014,0.0
52673.0,STARLINK-3976,PAYLOAD,2022-05-29 20:00:01,15.7313219,0.0002539,53.2149,241.4075,309.3842,42.3031,-0.00026685,-0.00037802,0.0,0 STARLINK-3976,1 52673U 22053T   22149.83334491 -.00037802  00000-0 -26685-3 0  9990,2 52673  53.2149 241.4075 0002539 309.3842  42.3031 15.73132190  2119,6728.089,91.537,351.662,348.245,0.0
52673.0,STARLINK-3976,PAYLOAD,2022-05-29 21:33:38,15.73035881,0.0002657,53.2118,241.0841,299.1314,60.944,-0.00047738,-0.00066637,0.0,0 STARLINK-3976,1 52673U 22053T   22149.89836618 -.00066637  00000-0 -47738-3 0  9994,2 52673  53.2118 241.0841 0002657 299.1314  60.9440 15.73035881  2550,6728.363,91.543,352.016,348.44,0.0
52673.0,STARLINK-3976,PAYLOAD,2022-05-30 04:00:00,15.73094057,0.0002194,53.2151,239.7566,309.7351,130.7793,0.0013269,0.00188997,0.0,0 STARLINK-3976,1 52673U 22053T   22150.16667824  .00188997  00000-0  13269-2 0  9990,2 52673  53.2151 239.7566 0002194 309.7351 130.7793 15.73094057  2164,6728.196999999999,91.539,351.538,348.586,0.0
52673.0,STARLINK-3976,PAYLOAD,2022-05-30 12:48:28,15.73215514,0.0002679,53.2124,237.94,310.7449,49.3338,0.00064503,0.00090962,0.0,0 STARLINK-3976,1 52673U 22053T   22150.53365899  .00090962  00000-0  64503-3 0  9990,2 52673  53.2124 237.9400 0002679 310.7449  49.3338 15.73215514  2656,6727.851,91.532,351.51800000000014,347.914,0.0
52673.0,STARLINK-3976,PAYLOAD,2022-05-30 12:48:29,15.73051683,0.0003163,53.2123,237.94,314.5203,45.5558,-0.000459,-0.00064164,0.0,0 STARLINK-3976,1 52673U 22053T   22150.53367709 -.00064164  00000-0 -45900-3 0  9999,2 52673  53.2123 237.9400 0003163 314.5203  45.5558 15.73051683  2224,6728.318,91.542,352.311,348.055,0.0
52673.0,STARLINK-3976,PAYLOAD,2022-05-30 20:25:51,15.73242637,0.0002289,53.2126,236.3679,256.601,103.4755,0.00046276,0.00064952,0.0,0 STARLINK-3976,1 52673U 22053T   22150.85129206  .00064952  00000-0  46276-3 0  9992,2 52673  53.2126 236.3679 0002289 256.6010 103.4755 15.73242637  2277,6727.774,91.531,351.17900000000014,348.099,0.0
52673.0,STARLINK-3976,PAYLOAD,2022-05-30 22:00:00,15.73253691,0.0002265,53.2153,236.0465,320.9506,49.6334,-0.00038206,-0.00054028,0.0,0 STARLINK-3976,1 52673U 22053T   22150.91667824 -.00054028  00000-0 -38206-3 0  9991,2 52673  53.2153 236.0465 0002265 320.9506  49.6334 15.73253691  1305,6727.7419999999975,91.53,351.131,348.083,0.0
52673.0,STARLINK-3976,PAYLOAD,2022-05-31 04:00:00,15.73188119,0.0002116,53.2154,234.8082,323.6219,23.6838,0.00061281,0.00086231,0.0,0 STARLINK-3976,1 52673U 22053T   22151.16667824  .00086231  00000-0  61281-3 0  9997,2 52673  53.2154 234.8082 0002116 323.6219  23.6838 15.73188119  2329,6727.929,91.534,351.218,348.37,0.0
52673.0,STARLINK-3976,PAYLOAD,2022-05-31 05:34:44,15.7328576,0.0001931,53.2142,234.4822,307.6426,52.4419,0.00044629,0.00062716,0.0,0 STARLINK-3976,1 52673U 22053T   22151.23245518  .00062716  00000-0  44629-3 0  9996,2 52673  53.2142 234.4822 0001931 307.6426  52.4419 15.73285760  2763,6727.651,91.528,350.815,348.217,0.0
52673.0,STARLINK-3976,PAYLOAD,2022-05-31 11:40:40,15.73190717,0.0002883,53.2142,233.2258,330.9859,29.1001,-9.2058e-05,-0.00013519,0.0,0 STARLINK-3976,1 52673U 22053T   22151.48657764 -.00013519  00000-0 -92058-4 0  9992,2 52673  53.2142 233.2258 0002883 330.9859  29.1001 15.73190717  2371,6727.922,91.534,351.726,347.847,0.0
52673.0,STARLINK-3976,PAYLOAD,2022-05-31 19:18:02,15.73267342,0.0002181,53.2142,231.6537,326.6941,33.3942,0.00028105,0.00039123,0.0,0 STARLINK-3976,1 52673U 22053T   22151.80419781  .00039123  00000-0  28105-3 0  9991,2 52673  53.2142 231.6537 0002181 326.6941  33.3942 15.73267342  2424,6727.703,91.529,351.035,348.101,0.0
